[Satellite]
VERSION=1.1
NAME=STARLINK-5203
NICKNAME=STARLINK-5203
TLE1=1 54104U 22136BF  22321.58334491  .00095180  00000+0  67605-3 0  9994
TLE2=2 54104  53.2153   9.4296 0003488  12.3602 334.4994 15.73155864  1307
STATUS=0
